#dP2022 12  1 12  0  0.00000000      96 __u+U ITR00 EXT  IAC
## 2238 388800.00000000   900.00000000 59914 0.5000000000000
+  117   C06C07C08C09C10C11C12C13C14C16C19C20C21C22C23C24C25
+        C26C27C28C29C30C32C33C34C35C36C37C38C39C40C41C42C43
+        C44C45C46E01E02E03E04E05E07E09E10E11E12E13E14E15E18
+        E19E21E24E25E26E27E30E31E33E34E36G01G02G03G04G05G06
+        G07G08G09G10G11G12G13G14G15G16G17G18G19G20G21G22G23
+        G24G25G26G27G29G30G31G32J02J03J04R01R02R03R04R05R07
+        R08R09R11R12R13R14R15R17R18R19R20R21R22R24R25  0  0
++         9 10 12  9  8 10  8 12  8 11  7  8  9  9  7  8  6
++         8  8  8  7  7  7 10 10  9  9  7 10 10  8  9 10 10
++        10  7  8  7  8  8  6  8  9  8  9  8  8  8  7  8  9
++         8  8  7  8  8  8  9  8  7  8  8  8  7  6  7  7  8
++         8  7  9  7  7  7  7  8  7  8  7  7  7  7  8  8  7
++         7  7  8  7  7  7  7  7 10  8 11 10  9  8  7  8  7
++         7 10  7  8  8  9  8  7  8  9  8  7 10  9  7  0  0
%c M  cc GPS ccc cccc cccc cccc cccc ccccc ccccc ccccc ccccc
%c cc cc ccc ccc cccc cccc cccc cccc ccccc ccccc ccccc ccccc
%f  0.0000000  0.000000000  0.00000000000  0.000000000000000
%f  0.0000000  0.000000000  0.00000000000  0.000000000000000
%i    0    0    0    0      0      0      0      0         0
%i    0    0    0    0      0      0      0      0         0
/* IAC                                ULTRA-RAPID PREDICTION
/* S/V CLOCKS ARE ALIGNED TO GNSS TIME                      
/* G:C1WC2W R:C1PC2P E:C1XC5X C:C2IC6I J:C1CC2S             
/* PCV:IGS14_2233 OL/AL:FES2004  NONE     YN ORB:CoN CLK:CoN
*  2022 12 01 13 30  0.00000000
PC06  -3979.806975  39722.452720 -13210.813440    225.950187
PC07  -7446.451083  26130.091034  32293.267060    136.836221
PC08 -20100.035772  31519.636621 -19687.424862    518.514511
PC09    478.025146  41523.892140  -5005.658914   -793.414002
PC10   1657.719232  27990.384531  31864.491371     59.110512
PC11  16350.643273   5521.538093 -21861.787650   -260.794178
PC12  13167.965042  22391.391395 -10171.531445    325.964354
PC13 -12426.021589  31648.682651 -24963.402241    147.272442
PC14  27398.309463   3498.687083   4170.285564    225.468200
PC16  -7177.151695  37183.316634 -18072.070407    108.754230
PC19 -24532.681906   3254.706022 -12867.825214   -907.934071
PC20 -26273.001466  -8687.121438   3532.668935    820.262072
PC21  12272.755506  16304.369135 -19030.595827   -931.713459
PC22  -8526.159015  13905.690710 -22647.183014   -763.629674
PC23  15162.933465 -22551.746209  -6320.738893   -873.596179
PC24  16151.325838   5943.748249  21947.174091   -732.953388
PC25  22153.613146 -13435.104843  10325.158513     32.949576
PC26   2288.931813  19091.943213  20221.561011    -43.698913
PC27  -8881.101699 -26390.389754   1922.740431     59.693426
PC28   3432.938351 -23809.263410 -14133.101252     42.284609
PC29 -14466.501539   6926.688890  22834.528187     47.908665
PC30 -17035.714602 -14244.961655  16909.762255      1.125684
PC32 -12272.336739 -16239.415321  19097.755383   -697.956228
PC33  24581.880876  -3352.795931  12782.671560   -901.256704
PC34  17210.660422  13052.605181 -17663.772415     51.493062
PC35  -3801.090188  22999.989353  15312.133982    113.334085
PC36 -22504.845503  12425.469353 -10854.548698   -799.779637
PC37   -630.675281 -19813.969383 -19619.664494   -898.536200
PC38 -24353.864620  32300.797582 -12204.911717     41.961237
PC39  -8071.543544  34851.831912 -22158.646662     -0.968573
PC40 -12777.355864  19467.799244  35139.505250     -9.253607
PC41   9130.968651 -13767.215053  22535.960766   -333.764006
PC42  25887.249566   9327.838405  -4651.820427   -767.990215
PC43  14898.857020  -6080.832929 -22803.544763     27.870144
PC44   9736.558245  26077.604117  -1742.825044    131.313200
PC45 -14952.477007  22610.191181   6690.647542    -29.257880
PC46 -17285.615364  -4085.850528 -21537.591017    -16.664833
PE01   8035.662456 -17917.776036 -22142.202986   -573.802524
PE02  -7773.953807  17918.931826  22246.525050      5.935918
PE03   3768.373482  22348.485540 -19053.014848   -625.460783
PE04 -19465.016040 -22065.883059   3249.139410     -4.721027
PE05 -14510.627470   9478.294147 -24000.830035   -119.305069
PE07  24052.492882   8717.143920  14888.545509     -3.702159
PE09 -24041.281874  -8894.607269 -14800.269055   -748.603629
PE10 -12924.101663 -11817.343226  23860.154023   -494.713577
PE11 -16481.530886    238.257171  24581.584537   1067.760627
PE12  -7719.487930 -20996.894805  19391.708671   -307.484124
PE13  16216.394115    773.344377 -24742.327677    430.489614
PE14  18272.351812  24205.387040    690.249182     72.255844
PE15   7517.464325  21202.424694 -19228.800027    703.828203
PE18  -7422.255451 -23379.945542  -9855.477503   -679.137622
PE19  -1233.065948 -21223.867967  20597.728601  -3855.202875
PE21  24377.449018 -13715.666960  -9669.904593   -497.825036
PE24 -27847.428910    538.335123 -10076.331655   -977.744837
PE25 -24577.004549  13577.524458   9396.144857   -593.945655
PE26  15185.957801 -20537.480497 -14942.581026  -1894.201520
PE27  28078.706911  -1330.692686   9251.090016   -452.748257
PE30  14432.889521  12210.390298  22763.648400  -1042.887556
PE31 -15232.399375 -11696.083272 -22519.291961   -509.554962
PE33   5546.337905 -28976.047553   2424.887072   -455.658337
PE34  -5392.988975  28997.840793  -2583.546867    -17.403632
PE36 -15321.021461  19877.102033  15702.243873   -468.945661
PG01 -13751.489559  20288.552118   9473.688200    243.821861
PG02  10635.900546 -23286.428155  -6823.559540   -635.239703
PG03 -20277.696132  12341.045923 -11929.505046   -374.834242
PG04  -9371.994650  12300.285926 -21583.579937    -76.596093
PG05  26019.562480  -5511.981551  -1370.865260   -106.405306
PG06   8571.604248  15303.650013 -19849.412292    530.907800
PG07  -5039.465835  25440.698935   4751.153921    280.392477
PG08 -17331.470412   1965.049361  20090.672499    -96.495123
PG09   1795.859846  20069.401790 -17362.159936   -260.317296
PG10 -10484.045484 -12470.644022  21200.327174    -14.220535
PG11  15042.730031   2859.883677 -21691.581584    -48.961751
PG12  21522.813874 -10747.975205 -11410.477956   -310.767159
PG13  18897.562867   7054.766953  17199.289795    434.365406
PG14   7643.695109  14071.229158  21212.251423    -75.080847
PG15  17135.846632  -4336.243766  19453.914014     -7.780816
PG16 -26281.992958   -869.105694  -5508.212054   -526.635300
PG17  11614.786409  22850.757245   7233.511046    682.434484
PG18   4248.971791 -25298.528567   6591.078844    -42.517657
PG19  17765.052184  19405.443200  -4795.366176    244.706928
PG20  22798.730221   1594.435099 -13320.391393    466.440915
PG21 -15666.769516  12708.167931  17468.009344    154.848122
PG22 -18763.792973 -17650.896319  -6412.512893    375.799928
PG23   2123.521752 -15521.098619  21422.951049     -0.539114
PG24  14290.956181 -17613.435462  13130.328335     35.282851
PG25  11835.385821 -15618.588871 -18096.025925    397.925293
PG26 -20900.311597  -6196.169277 -15493.151127    237.329664
PG27 -20865.419401  -9533.038589  13508.022849    164.643651
PG29   1448.247655 -18863.376052 -18649.343869   -571.025743
PG30   3808.699497  21784.413106  14612.683223   -536.063421
PG31 -10282.420223 -13796.755175 -20268.483077   -201.919277
PG32 -15254.989066 -21476.538877   4309.134240   -314.698906
PJ02 -30789.571933  25987.054941  17369.864749     -0.229640
PJ03 -26639.035620  26613.883016  24026.248499     -5.733056
PJ04 -30396.577034  19962.260491 -16121.685424    114.110363
PR01 -23858.497723  -8756.700421  -2160.964905     18.798946
PR02 -17325.133133   1758.891311 -18632.617122    -23.405821
PR03   -999.318455  11347.663059 -22778.399415     68.263903
PR04  15550.556425  14303.686243 -14255.257495    166.943821
PR05  23521.400366   9602.800483   2094.125951    103.820837
PR07    100.109830 -11708.202719  22700.995609     45.302173
PR08 -15696.082989 -14327.240478  14186.870783    -68.368748
PR09  20978.480946 -14294.955967   2887.004910     90.609424
PR11  -2582.590782 -11472.438936 -22628.012813     17.674013
PR12 -17660.849879   2188.433386 -18261.135327     23.289790
PR13 -21264.253274  13349.147369  -4538.477987    -29.498293
PR14 -12227.879329  17536.682930  13913.329769     24.067208
PR15   3540.083382  10967.854903  22772.805662     92.617154
PR17  -1663.975644  23870.828706   8913.237224    583.030230
PR18   5711.190267  23556.206154  -7851.613082     54.676397
PR19   9682.426163  12620.674083 -19936.949121   -212.980711
PR20   9058.994811  -9762.366764 -21748.976635    -83.168853
PR21   1005.769358 -24393.548221  -7331.951673   -354.058775
PR22  -5323.166509 -23434.897518   8599.960687     19.670269
PR24  -9050.519817  10709.566363  21336.580451    129.969369
PR25   3132.974487 -23559.513156  -9223.927005     47.751222
EOF
